EUTELSAT 21B            
1 38992U 12062B   25279.49880873  .00000133  00000+0  00000+0 0  9999
2 38992   0.0735  14.7382 0002905 188.7865  13.0649  1.00274246 47282
EUTELSAT 70B            
1 39020U 12069A   25279.51940338 -.00000041  00000+0  00000+0 0  9994
2 39020   0.0660   2.6906 0004119 194.6180  75.6130  1.00271446 46967
EUTELSAT 117 WEST A     
1 39122U 13012A   25279.44786535 -.00000011  00000+0  00000+0 0  9992
2 39122   0.0490  56.4189 0002713 140.0154 223.3675  1.00271548 45884
EUTELSAT 7B             
1 39163U 13022A   25279.35324280  .00000050  00000+0  00000+0 0  9995
2 39163   0.0708 359.8188 0001256 315.8958 193.7404  1.00272517 45411
EXPRESS-AT1             
1 39612U 14010A   25279.54763127  .00000080  00000+0  00000+0 0  9993
2 39612   0.0170 214.0853 0000487 265.6095 148.9543  1.00273804 42270
EXPRESS-AT2             
1 39613U 14010B   25278.93641897 -.00000280  00000+0  00000+0 0  9998
2 39613   0.0177 243.9529 0001282 230.5790  17.2966  1.00264490 41958
EUTELSAT 3B             
1 39773U 14030A   25279.35246279  .00000022  00000+0  00000+0 0  9992
2 39773   0.0661   4.3084 0004528 186.7265 314.2239  1.00271237 41526
EUTELSAT 115 WEST B     
1 40425U 15010B   25279.47180333 -.00000023  00000+0  00000+0 0  9990
2 40425   0.0218  48.5037 0000370  43.5778 338.2614  1.00270946 38848
